{"type":"FeatureCollection","features":[{"geometry":{"type":"Polygon","coordinates":[[[30.004543948684017,-1.9171366214775922],[30.003868381094463,-1.9174943755339913],[30.003917137837703,-1.9175518079817306],[30.00395994835413,-1.917621205407654],[30.003994434154475,-1.9177085507528289],[30.00401702923959,-1.9177958961253438],[30.00403605650454,-1.9178545252263888],[30.004100271567502,-1.9178401669330956],[30.004157352015348,-1.9178246129722525],[30.004201049151476,-1.918009899344695],[30.004240596007165,-1.918177584229487],[30.004310757555626,-1.918249374751634],[30.004424918820966,-1.918353471197277],[30.00446891857393,-1.9184013318492876],[30.004502215971858,-1.9184539779720395],[30.004572377612376,-1.9185520915883667],[30.004618755946392,-1.9186250796526572],[30.00467226904194,-1.918750713001903],[30.004699621116202,-1.918812931832936],[30.004542648860202,-1.9188380587776488],[30.004418974786137,-1.9188703651436745],[30.00426675957198,-1.9189122433640657],[30.004133571453437,-1.9189385667981838],[30.004057463842212,-1.9189601046430655],[30.003965896909158,-1.919009162212813],[30.004006329874375,-1.919085738259389],[30.004053896620125,-1.9191874426149196],[30.004094329641894,-1.919284359733674],[30.004106221412506,-1.919344185437072],[30.004021789951867,-1.9193824737094165],[30.003892168695867,-1.919427941603589],[30.003805358715386,-1.9194638376010817],[30.00383746693821,-1.919551182952834],[30.00393141295607,-1.9197414283121201],[30.003973034064625,-1.9197198914583502],[30.004049141690814,-1.9196899784129045],[30.004410651779136,-1.9195571644973075],[30.004443949194634,-1.9196086140334567],[30.00447130037227,-1.9196696362805583],[30.004498651558066,-1.9197330517010567],[30.004510543295748,-1.919773732913854],[30.004526002837135,-1.9198311654304208],[30.004529570690842,-1.919867061221699],[30.00453789557923,-1.9199113322047374],[30.00453076019285,-1.9199615852594583],[30.004510543872854,-1.919993891352974],[30.00448081440674,-1.9200190188538895],[30.00442135539192,-1.920038162592467],[30.004336923862077,-1.9200597004712534],[30.00432797165837,-1.9200619064469595],[30.00437378933387,-1.9202248194317881],[30.004398762088567,-1.9203157545513514],[30.004411843078245,-1.9203552391744672],[30.00441688329964,-1.9203755268730702],[30.00449546744479,-1.9203494776105519],[30.004585851535264,-1.9203238280794335],[30.00473449276924,-1.9202657212994088],[30.004820113544113,-1.9202393979540282],[30.00491168056933,-1.9202082882391454],[30.004969950286238,-1.9201735888561424],[30.00503654384335,-1.9201281210680607],[30.005060327876034,-1.9200826534053563],[30.005096002726724,-1.9200659019854331],[30.005218488610225,-1.9200635093442577],[30.00535762315818,-1.9200670977678391],[30.005449189405667,-1.9200802590290864],[30.005524680506177,-1.9200920962233972],[30.00552663290274,-1.9200832941122958],[30.005562308230097,-1.9199373194283487],[30.005587280390625,-1.9198272396748053],[30.005602739489305,-1.9197375010265816],[30.005620577193845,-1.919678871823059],[30.00565863041463,-1.91962502890006],[30.005740684048163,-1.9195281105054833],[30.005809655996828,-1.9194623025088966],[30.005846520930238,-1.919431192929645],[30.005894087241145,-1.9193713670335564],[30.005833439351115,-1.9192253926739493],[30.00575614185581,-1.9190554875328372],[30.005676465906504,-1.9188963516788482],[30.0056086825223,-1.9187455909860986],[30.00556230403106,-1.918637904639303],[30.005513547052793,-1.9185338080598222],[30.00545408768777,-1.9184225328955016],[30.005392250729095,-1.9183124534190736],[30.005329223660816,-1.9182131432270466],[30.00527927753751,-1.9181353697493029],[30.00525430495074,-1.9181042603731617],[30.005205548122067,-1.9180384527596919],[30.005142521085283,-1.917942731416957],[30.00505927852188,-1.9178290631356372],[30.004955819470755,-1.9176735161723515],[30.00491300893341,-1.9176112973893322],[30.004860685222145,-1.9175263452878315],[30.004786955753225,-1.9173923358904292],[30.004664469566723,-1.9172128590303412],[30.0046034704891,-1.9171056502446198],[30.004543948684017,-1.9171366214775922]]],"crs":null},"type":"Feature","properties":{"size":43247.90369529,"district":"Nyarugenge","cell":"Nyamweru","village":"Ruhengeri","sector":"Kanyinya","upi":"1/01/02/01/1399"}},{"geometry":{"type":"Polygon","coordinates":[[[30.00707045600813,-1.942223932467864],[30.007054401608546,-1.9420740688735263],[30.007027643911123,-1.941952024380875],[30.007018724665873,-1.9419080527974433],[30.00700623853717,-1.9418694654166144],[30.00697234669461,-1.9418838236931781],[30.00691437281148,-1.9418910025483143],[30.006839453447963,-1.9419035665626752],[30.006794859011293,-1.941899079769707],[30.006780588896923,-1.9419511281820134],[30.006768994036523,-1.942022021692909],[30.006738670534684,-1.9421727826906863],[30.006700004823642,-1.9422616875163234],[30.006688724688296,-1.9423603367708695],[30.00667534646628,-1.9424563567989475],[30.006653941861284,-1.942567632208031],[30.006672671789214,-1.942584682815354],[30.00668783393194,-1.9426071176244533],[30.00675829357285,-1.9425389155204809],[30.00680110440733,-1.9425021223428236],[30.00678059095384,-1.9424671247530112],[30.006744914495673,-1.9424186663022882],[30.006740454891403,-1.9424007184246384],[30.00682696923934,-1.9423423883192694],[30.006922401755187,-1.9422858526004882],[30.00697680778318,-1.9422634175060167],[30.0070089152993,-1.9422535462107355],[30.007064213118916,-1.9422472645775055],[30.00707045600813,-1.942223932467864]]],"crs":null},"type":"Feature","properties":{"size":1815.59719071,"district":"Nyarugenge","cell":"Nzove","village":"Ruyenzi","sector":"Kanyinya","upi":"1/01/02/02/1730"}},{"geometry":{"type":"Polygon","coordinates":[[[30.00562349468107,-1.937912483197406],[30.00568259846903,-1.9379345434275679],[30.005697224746644,-1.9379400026355382],[30.005747170408434,-1.9379699153251562],[30.005800684743487,-1.9379926484806278],[30.005775711266047,-1.938052474285193],[30.005785225456734,-1.938071618735744],[30.005804838035896,-1.938081090968216],[30.00581495535096,-1.938085976769593],[30.005844685270386,-1.9381075143233268],[30.005894630989374,-1.9381517851448695],[30.005955280086486,-1.9381912695800654],[30.00601523792146,-1.9382311592089585],[30.006053982826433,-1.9381828940254167],[30.006096794379268,-1.9381218715656885],[30.006113442134705,-1.9380752073362661],[30.006119388124016,-1.9379806823897334],[30.00613246899245,-1.937937607933249],[30.006157441600003,-1.9378897470862322],[30.00619192830892,-1.9378359041747086],[30.006222847140542,-1.9377605236188307],[30.00623917768372,-1.937744454203505],[30.00622412440139,-1.9377335800625393],[30.006159907457466,-1.937677344339935],[30.006073096238747,-1.9376115360026471],[30.005992231345026,-1.9375433353705718],[30.00591255484084,-1.9374799201729158],[30.005914933238646,-1.9374416321023076],[30.005924446324826,-1.93740214651542],[30.005937527252055,-1.9373758233700076],[30.00587687820089,-1.9373411243762029],[30.005822405558572,-1.9372941465518239],[30.005772936484526,-1.9373067755509856],[30.005721994121778,-1.9373297062340296],[30.005696464061,-1.9373411982563915],[30.005682557858997,-1.9373474579985888],[30.00561120656627,-1.9373857463001054],[30.005563638754637,-1.9374168559042415],[30.005492287433267,-1.9374479655847363],[30.005474130265114,-1.9374564909851122],[30.005491493016226,-1.9375176335262496],[30.005508141095508,-1.9375678874015154],[30.00550457429102,-1.937596603685962],[30.005481979239768,-1.9376253200324676],[30.005448682631116,-1.9376648047893827],[30.005420141273508,-1.9377007006746656],[30.005328574715726,-1.9378897499129948],[30.005375669021426,-1.9379237091299324],[30.0053841942754,-1.937903552540409],[30.00540557752413,-1.9378529566605944],[30.005420968618722,-1.937808513769886],[30.00554732670574,-1.9378688111999105],[30.005586624704637,-1.9378985557017714],[30.00562349468107,-1.937912483197406]]],"crs":null},"type":"Feature","properties":{"size":5251.85071035,"district":"Nyarugenge","cell":"Nzove","village":"Ruyenzi","sector":"Kanyinya","upi":"1/01/02/02/5423"}},{"geometry":{"type":"Polygon","coordinates":[[[30.04858550827385,-1.940631458663244],[30.048514473221438,-1.940602009135426],[30.048509436873836,-1.9406119717885018],[30.04850126168534,-1.9406281453845755],[30.048476289457547,-1.9406801944417582],[30.04854318351391,-1.9407205752635066],[30.048558344471278,-1.9406828846194604],[30.048579748329306,-1.9406425012497062],[30.04858550827385,-1.940631458663244]]],"crs":null},"type":"Feature","properties":{"size":86.98039078,"district":"Nyarugenge","cell":"Tetero","village":"Intiganda","sector":"Muhima","upi":"1/01/06/06/198"}},{"geometry":{"type":"Polygon","coordinates":[[[30.052502221871393,-1.939920144548916],[30.05249151819145,-1.9398818559332496],[30.052464167044263,-1.939887839717508],[30.05242254563459,-1.9398950205323109],[30.052363115989703,-1.939908694036393],[30.05237616848325,-1.9399452749797457],[30.052352384272098,-1.9399524552374172],[30.052378549592547,-1.9400290314178184],[30.052391632356397,-1.9400852669441826],[30.05239677356628,-1.940124423100348],[30.05240471456878,-1.9401235545818665],[30.052495346508316,-1.9401096747926692],[30.05248201041594,-1.9400589410391935],[30.052468926824137,-1.9400050977815617],[30.05245346519364,-1.9399380939584991],[30.052502221871393,-1.939920144548916]]],"crs":null},"type":"Feature","properties":{"size":281.19574316,"district":"Nyarugenge","cell":"Tetero","village":"Ingoro","sector":"Muhima","upi":"1/01/06/06/235"}},{"geometry":{"type":"Polygon","coordinates":[[[30.06745130005336,-1.964502030333721],[30.06737956204382,-1.9645280786519965],[30.067369660455903,-1.9645085990391604],[30.067343466288985,-1.964457068236506],[30.067321106782643,-1.964468574633741],[30.06724025425124,-1.9645101798317053],[30.067255468727673,-1.964557578654861],[30.06714397327161,-1.9645938081416672],[30.067184122091586,-1.9647047525176777],[30.067211689887046,-1.9647579103702157],[30.067297098232523,-1.964739447115587],[30.067405314976423,-1.9646951717764862],[30.06741329017033,-1.9647149056172664],[30.06747221528325,-1.9646773161489546],[30.06745251210345,-1.964509344560478],[30.06745130005336,-1.964502030333721]]],"crs":null},"type":"Feature","properties":{"size":755.51469339,"district":"Nyarugenge","cell":"Kiyovu","village":"Amizero","sector":"Nyarugenge","upi":"1/01/09/03/152"}},{"geometry":{"type":"Polygon","coordinates":[[[29.98657434315825,-1.887977139171506],[29.986557208047312,-1.8879217857913968],[29.986497329731648,-1.8877628508411393],[29.9864746180158,-1.8876942897325404],[29.986441581880886,-1.887596643238198],[29.98640131873417,-1.887491725812387],[29.986365185066244,-1.8873899233440596],[29.986338343101075,-1.8873037037181748],[29.986317731050157,-1.8872546950249272],[29.986251622119887,-1.8872683842565086],[29.986186969370497,-1.8872844757164116],[29.986168644322134,-1.8873209583714008],[29.986166964204276,-1.8873327885645728],[29.98619380571894,-1.8874751030892578],[29.986138708294995,-1.8874738110937241],[29.986147347306538,-1.887501072191735],[29.986161800157443,-1.8875509346383752],[29.985948400296667,-1.887535961555452],[29.98592744534617,-1.8875405451378386],[29.985902193541257,-1.8875652662650584],[29.98588924583352,-1.887577941122386],[29.985852079059363,-1.8876257247231696],[29.985811814987436,-1.8876392287368031],[29.98576535666643,-1.8876527326983645],[29.985716833671567,-1.8876568873416562],[29.985564037004597,-1.887743105485797],[29.985513449110996,-1.8877649203974862],[29.985501100584845,-1.8877141833601896],[29.985311098500645,-1.8877358324811024],[29.985278244914863,-1.8877438293488729],[29.985231755177285,-1.8877512508693264],[29.98517788649617,-1.8877536860922515],[29.985158193311822,-1.8877901623932558],[29.98501553226486,-1.8880072590177113],[29.984984225263705,-1.8880616749822905],[29.985202820328063,-1.8882343273344298],[29.98528254335913,-1.888283684757916],[29.985442006680803,-1.8883623226121937],[29.985649624409223,-1.8884465214111752],[29.985616230869528,-1.8885284634019353],[29.985582022902282,-1.8886140494142933],[29.985514324457565,-1.88876281459766],[29.985456374624885,-1.888892506817984],[29.985363853323104,-1.8890387284722694],[29.98529669741626,-1.8891230099818808],[29.985284204522767,-1.8891366724975407],[29.985333002068128,-1.8891983328884239],[29.985448926626617,-1.8892998303459463],[29.985593905777097,-1.8894328662105848],[29.985628032546433,-1.8893854335179823],[29.985700301624263,-1.8892659734543353],[29.985742631010993,-1.8891880644792247],[29.985780830942293,-1.8891039229037525],[29.98581696523424,-1.889128853461338],[29.985893135220703,-1.8891520487060247],[29.985984214335833,-1.8891589802479714],[29.986125653767644,-1.8891683306897786],[29.986217537454355,-1.8891672922122638],[29.986237265400856,-1.8891674605972915],[29.98624231548287,-1.889152749757819],[29.986240251884045,-1.8890062803906122],[29.98623508981853,-1.888973039097561],[29.986305293460653,-1.8889335649339918],[29.986410544861346,-1.8888902046218095],[29.98643640961251,-1.8888795494993098],[29.986561330564907,-1.88883072735838],[29.98662946935585,-1.8888026799871769],[29.986665470926493,-1.8887871562850116],[29.98663730126624,-1.8887007440068484],[29.986633600621694,-1.8886894519195099],[29.986615017697698,-1.8885938830628586],[29.986615019144253,-1.8884048231587685],[29.986602632344315,-1.8881825228103641],[29.986596437776004,-1.888106690957784],[29.986576823133763,-1.8879851517136605],[29.98657434315825,-1.887977139171506]]],"crs":null},"type":"Feature","properties":{"size":23932.75582732,"district":"Nyarugenge","cell":"Taba","village":"Taba","sector":"Kanyinya","upi":"1/01/02/03/802"}},{"geometry":{"type":"Polygon","coordinates":[[[30.065912141738835,-1.96484987885085],[30.065899017321783,-1.9648487035883904],[30.065915131191485,-1.9647712188335384],[30.06588690470139,-1.9647685518298794],[30.065845765940626,-1.964764665236561],[30.06578511640516,-1.9647503095174432],[30.065779169612284,-1.9647407379729656],[30.06574824980061,-1.9647347562693116],[30.06575101385564,-1.9646158971361167],[30.065558640913,-1.9646093936137794],[30.065553904978806,-1.964507559213294],[30.06544532511405,-1.964785048342212],[30.065552479801344,-1.9648438332789737],[30.06557773986197,-1.9648474500764488],[30.06562556408455,-1.9648774758827103],[30.065641206546125,-1.9649053322829908],[30.06564538596632,-1.9649129321998022],[30.06571733667666,-1.9648998763514625],[30.06589269864723,-1.9648920522537887],[30.0659052315009,-1.9648914928072096],[30.065906981337058,-1.9648818060928366],[30.065912141738835,-1.96484987885085]]],"crs":null},"type":"Feature","properties":{"size":1153.61951742,"district":"Nyarugenge","cell":"Kiyovu","village":"Amizero","sector":"Nyarugenge","upi":"1/01/09/03/101"}},{"geometry":{"type":"Polygon","coordinates":[[[30.064249491184633,-1.9249616523223438],[30.064241974539645,-1.9249623843065338],[30.064175560681594,-1.924943539911509],[30.064146610535087,-1.9249221236523752],[30.064095522236062,-1.9248810039015558],[30.064054651443698,-1.9248535906893445],[30.063997606065307,-1.9249084223576496],[30.063904801743014,-1.9250018057068],[30.06390054566083,-1.9250326466774836],[30.063916724720734,-1.925070340793016],[30.063956744085374,-1.9251174583688178],[30.06399080401245,-1.9251491544067811],[30.06400613014319,-1.9251662877120246],[30.064034229825058,-1.9252091222648544],[30.064058923031983,-1.9252382491152096],[30.064103306013962,-1.9252454595144255],[30.064206332398214,-1.9252634460120623],[30.064239538980694,-1.9252634447538985],[30.064243795506155,-1.925244596777709],[30.064245496660686,-1.9251837716066809],[30.064242938017774,-1.925078397956572],[30.06424208501964,-1.9250321354172366],[30.064249491184633,-1.9249616523223438]]],"crs":null},"type":"Feature","properties":{"size":1177.9730948,"district":"Gasabo","cell":"Musezero","village":"Amarembo","sector":"Gisozi","upi":"1/02/04/01/1066"}},{"geometry":{"type":"Polygon","coordinates":[[[30.0632737502466,-1.9221044690788596],[30.063206481369704,-1.9219802500155156],[30.063158796950695,-1.9219040049172693],[30.063114523293308,-1.9219339917664178],[30.063062585868504,-1.9219725449370604],[30.063033089930236,-1.921994158749389],[30.063062588508746,-1.9220445074341017],[30.06312219471731,-1.9221584468191342],[30.063180949966892,-1.9223049400716579],[30.063215006780933,-1.9222783805588968],[30.06324310437623,-1.9222663865167025],[30.063270251711188,-1.9222512640197678],[30.063276943017303,-1.9222469766813812],[30.06321585309871,-1.9221438789896264],[30.063224367262027,-1.9221361682435754],[30.0632737502466,-1.9221044690788596]]],"crs":null},"type":"Feature","properties":{"size":591.89062338,"district":"Gasabo","cell":"Musezero","village":"Amajyambere","sector":"Gisozi","upi":"1/02/04/01/392"}},{"geometry":{"type":"Polygon","coordinates":[[[30.0654861736119,-1.9151171862843626],[30.06540149690982,-1.915116828661293],[30.065383673058427,-1.915201210836732],[30.065375546671085,-1.9152644131533494],[30.065374069578464,-1.9152830014496534],[30.065368897516727,-1.91531274355517],[30.06536224853117,-1.9153655356048496],[30.065349687288396,-1.9154138671378789],[30.065337127281744,-1.9154711201574504],[30.065331215081052,-1.9154681465553045],[30.065304610740167,-1.915457737365188],[30.065284658228776,-1.9154458419097313],[30.06525805428237,-1.91544584292901],[30.06523366759324,-1.915436921471729],[30.065213714689715,-1.9154384091500498],[30.065192283735904,-1.9154332048651401],[30.06517233150656,-1.9154287448851386],[30.06515385623173,-1.9154257708583633],[30.065134647674768,-1.9155477130503433],[30.06511248166711,-1.9156443750957621],[30.065145735929846,-1.9156503223866794],[30.065164211488018,-1.9156607309856581],[30.065191553578174,-1.9156644481301677],[30.06522111362911,-1.9156778301332327],[30.065249195545423,-1.9156822907056317],[30.065267023761038,-1.9156891891610315],[30.065295751897,-1.91569121131289],[30.065337136183224,-1.9157060806795538],[30.065357827512205,-1.9157157457342349],[30.065396256091706,-1.9157276413838709],[30.065438378464087,-1.9157447410913375],[30.065466460607762,-1.9157551502223085],[30.065512227044458,-1.9157698222462916],[30.065521145154282,-1.9157484561003084],[30.06556695910457,-1.9156651771792907],[30.065593561244313,-1.915617588561636],[30.065616467537662,-1.9155581047703472],[30.065641591063102,-1.91551274748504],[30.065650457868525,-1.91548969725595],[30.065690361438346,-1.9154279806280385],[30.065711790948594,-1.9153952640659901],[30.065747998308467,-1.9153357788554486],[30.065764255526602,-1.9153030624923246],[30.065784945605103,-1.91528001180624],[30.065795057862253,-1.9152458114789452],[30.065771642073962,-1.9152391167457572],[30.06569552594074,-1.9152235052715672],[30.06562680003243,-1.9152168159005014],[30.06551964656758,-1.915201205613587],[30.065481957881335,-1.9151915412139857],[30.065484911810046,-1.9151476716971616],[30.0654861736119,-1.9151171862843626]]],"crs":null},"type":"Feature","properties":{"size":2733.07249783,"district":"Gasabo","cell":"Musezero","village":"Gasharu","sector":"Gisozi","upi":"1/02/04/01/474"}},{"geometry":{"type":"Polygon","coordinates":[[[30.061665494021074,-1.9216232654180647],[30.06162630946722,-1.921288579941029],[30.06159210819572,-1.9212976627558895],[30.06157950021068,-1.9212998555979275],[30.06152314091735,-1.921309659156198],[30.06144326101302,-1.9213244823522377],[30.061434542575896,-1.9213261007272346],[30.061443958533186,-1.921373914093099],[30.061463546614405,-1.9214998479851448],[30.06146787725748,-1.9216174687320347],[30.061665494021074,-1.9216232654180647]]],"crs":null},"type":"Feature","properties":{"size":736.4076179,"district":"Gasabo","cell":"Musezero","village":"Amajyambere","sector":"Gisozi","upi":"1/02/04/01/4807"}},{"geometry":{"type":"Polygon","coordinates":[[[30.063492899174165,-1.915471697283944],[30.06349795103982,-1.9154724577374445],[30.063501196099427,-1.9154729460190616],[30.063532960677314,-1.9154736276939628],[30.06357698008887,-1.9154765419960915],[30.063579046673066,-1.9154766793952267],[30.06361668295539,-1.9154791706522862],[30.06363909992189,-1.9154821816309748],[30.063713679096743,-1.9155024131811724],[30.06371649450402,-1.9155035364018569],[30.06372692797319,-1.9154763980129152],[30.06373266781918,-1.9154614680550186],[30.063767036932642,-1.9154733042003058],[30.063755114736722,-1.915423616015595],[30.063719348754727,-1.9152908288331838],[30.06369550659677,-1.9152274341657156],[30.06368514225752,-1.9151791867096062],[30.063390825517217,-1.9153366622941665],[30.06338984561066,-1.9154561843906903],[30.063485262946724,-1.9154705480135499],[30.06348914802912,-1.9154711330474115],[30.063492899174165,-1.915471697283944]]],"crs":null},"type":"Feature","properties":{"size":943.5767299,"district":"Gasabo","cell":"Musezero","village":"Gasharu","sector":"Gisozi","upi":"1/02/04/01/454"}},{"geometry":{"type":"Polygon","coordinates":[[[30.168128225597286,-1.9224842217922864],[30.168112731085564,-1.9224280011676098],[30.168067513391957,-1.9221324680327332],[30.168042556464396,-1.9219693537032467],[30.16801754281424,-1.9218788130139892],[30.167985429230946,-1.9218118112284917],[30.167849845144342,-1.9216299550547957],[30.16770069576058,-1.9214299045658798],[30.167496651667374,-1.9215474312081717],[30.16741339217846,-1.9213775347456228],[30.16728159299963,-1.921412620332821],[30.167388449568634,-1.9216838440660167],[30.167265971305877,-1.9217580396865794],[30.167173956807734,-1.9217668643814765],[30.16721366317919,-1.9219147871112108],[30.167285719136284,-1.922181062433849],[30.16736237398351,-1.9225680663437847],[30.167571669254816,-1.922566849112214],[30.167734583806315,-1.922565902345968],[30.1679486407678,-1.9225943314262506],[30.168090156371,-1.9226338028075338],[30.168207252587976,-1.9226664625021044],[30.168165068293668,-1.9225691835889065],[30.168128225597286,-1.9224842217922864]]],"crs":null},"type":"Feature","properties":{"size":9950.81207453,"district":"Gasabo","cell":"Musave","village":"Ramba","sector":"Bumbogo","upi":"1/02/01/02/417"}},{"geometry":{"type":"Polygon","coordinates":[[[30.069259013235275,-1.9193614855620522],[30.06925277722342,-1.9193539047239252],[30.06923582417222,-1.9193614865065116],[30.069173393792564,-1.9193937950640794],[30.06904407218912,-1.919446745865141],[30.0689970494972,-1.9194679724806103],[30.06904853630338,-1.9195625088341641],[30.06908515754242,-1.9196254009258644],[30.06913683461044,-1.9196001954472135],[30.069191238132653,-1.9195768611611057],[30.069257236635565,-1.9195535264010064],[30.069303613899518,-1.9195319868653797],[30.069344639797123,-1.9195059614793872],[30.069316097596197,-1.9194575040711481],[30.069281312173484,-1.9194009701866057],[30.069259013235275,-1.9193614855620522]]],"crs":null},"type":"Feature","properties":{"size":625.09240117,"district":"Gasabo","cell":"Musezero","village":"Gasave","sector":"Gisozi","upi":"1/02/04/01/1874"}},{"geometry":{"type":"Polygon","coordinates":[[[30.06096607162388,-1.9149410252889247],[30.060783011367935,-1.9148785190079982],[30.060602887826015,-1.9147899834567694],[30.06054307790836,-1.9147246400267826],[30.060462207878086,-1.9145647887231625],[30.060328380130734,-1.9143860498667185],[30.060181867719223,-1.9142252439623828],[30.06014381219442,-1.9141601548034304],[30.06013176814799,-1.9141444883577163],[30.060056545846276,-1.9141871728757287],[30.05994833181216,-1.9142242681499375],[30.05981383120955,-1.9142629389862182],[30.05980110205266,-1.9142689241737245],[30.059794410728173,-1.9142720700831073],[30.059704554577696,-1.9143235870466084],[30.059722485375897,-1.9143605684457006],[30.059771856654464,-1.9144623959478175],[30.059780233073038,-1.9144751013576935],[30.05979212249602,-1.9144904367828661],[30.059859900211478,-1.9145804515284643],[30.059895463349125,-1.914627480737643],[30.059903898952296,-1.9146360157291598],[30.059971554467065,-1.9147012756971424],[30.060016389664977,-1.9147445221704409],[30.060103277868684,-1.9148283335190857],[30.060114331848826,-1.9148331348504388],[30.06023923634519,-1.9148873874478753],[30.06032201694739,-1.9149560349333292],[30.060324544012296,-1.9149631212039053],[30.060330404170998,-1.9149947794345006],[30.060320845440803,-1.9150007120557329],[30.060312424999317,-1.9150145757523032],[30.060296350315248,-1.9150261297563096],[30.060257311993432,-1.9150561688021388],[30.06020755675638,-1.9150808177081726],[30.060170138659707,-1.9150966704079193],[30.06016392463266,-1.9150993034791821],[30.0601187623198,-1.915136275341966],[30.060084936866726,-1.9151701508739047],[30.060074656188633,-1.9151724485375852],[30.060024076664828,-1.9151974927117845],[30.060119077794333,-1.9153672327851494],[30.060244287864922,-1.9155989808264815],[30.060325178282316,-1.915878182357936],[30.060349383033984,-1.915877326795953],[30.060572862234007,-1.9158784720359356],[30.060732163783133,-1.9159188246982868],[30.061160788643985,-1.916036427559722],[30.061352679468673,-1.9159866587647179],[30.06133917466565,-1.9159453322515474],[30.06131773769827,-1.915846746246135],[30.06125955422848,-1.915666006818621],[30.061237096758802,-1.9155602331900594],[30.06125546732291,-1.9155509899626768],[30.0613034370429,-1.9155181259779368],[30.06132486969593,-1.915495532968531],[30.061358549214845,-1.9154534269296897],[30.061405497190727,-1.915404131849388],[30.061456527267634,-1.9153599720834258],[30.06146571261317,-1.9153445671723188],[30.061479450332296,-1.9153383241679431],[30.0612851340877,-1.915102638927309],[30.061133500263175,-1.9150119624821307],[30.061041181250506,-1.9151687276515472],[30.060874514847914,-1.9150971817281006],[30.06096607162388,-1.9149410252889247]]],"crs":null},"type":"Feature","properties":{"size":18209.73541922,"district":"Gasabo","cell":"Musezero","village":"Nyakariba","sector":"Gisozi","upi":"1/02/04/01/3310"}},{"geometry":{"type":"Polygon","coordinates":[[[30.055118721262204,-1.9273206534993548],[30.055016292516207,-1.9273278472020454],[30.054987713520973,-1.9273292509312157],[30.05498605884835,-1.927336120276843],[30.054943185333368,-1.9274479703828582],[30.054956170169586,-1.927534657802359],[30.0549793764066,-1.927533969667548],[30.055053220959042,-1.9275339672678449],[30.055124683708428,-1.9275435521043187],[30.05513778532082,-1.927543551677679],[30.055262844175285,-1.9275375556240113],[30.05544626374783,-1.9275004002795313],[30.055445069087014,-1.9273889504675181],[30.055432917059044,-1.9272881065856757],[30.055329354254088,-1.927306495616896],[30.055328483583473,-1.9272902028969505],[30.055118721262204,-1.9273206534993548]]],"crs":null},"type":"Feature","properties":{"size":1314.87337552,"district":"Gasabo","cell":"Ruhango","village":"Rukeri","sector":"Gisozi","upi":"1/02/04/02/2029"}},{"geometry":{"type":"Polygon","coordinates":[[[30.054811395393813,-1.9284921034030627],[30.054739693027685,-1.9284678655804646],[30.054654830499334,-1.928440005860741],[30.054624313046855,-1.9284292601804196],[30.054577376178393,-1.9284774941632035],[30.05457735737961,-1.928479952456778],[30.054522077248848,-1.9285698564918985],[30.054522073691505,-1.9285710594094974],[30.05465206168778,-1.9286319879602187],[30.05462743614605,-1.928776429296324],[30.054873198525517,-1.9287833856023877],[30.054881880211873,-1.928783629522078],[30.054885665411966,-1.9287240144379751],[30.05488281495042,-1.9287235107522192],[30.054825913546892,-1.9287121165368244],[30.054811344339868,-1.9284978529884365],[30.054811395393813,-1.9284921034030627]]],"crs":null},"type":"Feature","properties":{"size":909.82231778,"district":"Gasabo","cell":"Ruhango","village":"Rukeri","sector":"Gisozi","upi":"1/02/04/02/3332"}},{"geometry":{"type":"Polygon","coordinates":[[[30.051836536831292,-1.9252292019016464],[30.051867507903754,-1.9253801915291568],[30.05199165832981,-1.9253909560987033],[30.05205587438487,-1.9253844936462834],[30.052103247826324,-1.9253860053342553],[30.052123301603423,-1.9253866450677923],[30.05219821910207,-1.9253780278826134],[30.052267968066815,-1.9253757429030993],[30.052329862373707,-1.9253737159312498],[30.052411201379215,-1.9253554073642976],[30.052479697738285,-1.9253392517805321],[30.052505264143292,-1.9253274913390617],[30.052485266408983,-1.9252488148190734],[30.05247922914465,-1.9252131118702323],[30.052131979761814,-1.9252417465969873],[30.05185939983672,-1.9252642241925877],[30.051836536831292,-1.9252292019016464]]],"crs":null},"type":"Feature","properties":{"size":1077.01075543,"district":"Gasabo","cell":"Ruhango","village":"Rukeri","sector":"Gisozi","upi":"1/02/04/02/5432"}},{"geometry":{"type":"Polygon","coordinates":[[[30.054021068107108,-1.9228166861698621],[30.05404698554821,-1.922821155133124],[30.05409636130729,-1.922839219030157],[30.054138592549233,-1.9228572433579347],[30.054117980033023,-1.9224111153561476],[30.05410689124726,-1.9219299640576386],[30.054101958501615,-1.9217159624650775],[30.053999166594405,-1.921741247808385],[30.05389677041981,-1.9217734476479276],[30.053885006540618,-1.9217771472189438],[30.053799874889563,-1.9218419338133452],[30.05374349678537,-1.9218848381516287],[30.053735138011035,-1.9218900145795739],[30.053681660370795,-1.9219231281603908],[30.053575579769632,-1.9219909236044683],[30.05350566506843,-1.9220356056051304],[30.05347132631783,-1.9220484272558707],[30.05333959390918,-1.9220976162576258],[30.053316587546945,-1.9221062065354013],[30.053282102245063,-1.9221181725779894],[30.053308874925538,-1.9221932075657997],[30.053315401559015,-1.9222114998481468],[30.053340376297875,-1.9222533768756391],[30.053363035483446,-1.922296235302972],[30.05337010760198,-1.922309611885901],[30.05338794606771,-1.922356275482673],[30.053418866889857,-1.9224208856551794],[30.053450977564324,-1.9225046411724054],[30.0534676282745,-1.9225704483794768],[30.053477513867186,-1.9226092417075566],[30.05350219847378,-1.9226576995145228],[30.053561199805742,-1.9227649128828765],[30.05359843785385,-1.922819582049722],[30.0536641472011,-1.9228230593896705],[30.05381490280976,-1.9228177427853423],[30.053814113527263,-1.9228164114609652],[30.053998000152756,-1.9228106243803502],[30.054020986297658,-1.922816404888756],[30.054021068107108,-1.9228166861698621]]],"crs":null},"type":"Feature","properties":{"size":8059.79735173,"district":"Gasabo","cell":"Ruhango","village":"Umurava","sector":"Gisozi","upi":"1/02/04/02/666"}},{"geometry":{"type":"Polygon","coordinates":[[[30.062173042178117,-1.9245360842226704],[30.06197444402876,-1.9244212264510485],[30.06190261791667,-1.9243782586953675],[30.06189887246867,-1.9243866439801345],[30.061859636373125,-1.9245709079329831],[30.061839426348865,-1.9247491891642985],[30.061838734120336,-1.9247722218915466],[30.061837643999564,-1.924779301959265],[30.06186618480079,-1.9247920635999227],[30.061929607627587,-1.924801633069712],[30.062044207043623,-1.9248094207091837],[30.062063643918794,-1.9247287268539812],[30.06212072057213,-1.924617449480969],[30.062173042178117,-1.9245360842226704]]],"crs":null},"type":"Feature","properties":{"size":1108.42791736,"district":"Gasabo","cell":"Ruhango","village":"Kumukenke","sector":"Gisozi","upi":"1/02/04/02/2280"}},{"geometry":{"type":"Polygon","coordinates":[[[30.063741026176274,-1.9179260465925438],[30.063731737675667,-1.9178985724875317],[30.063728224059112,-1.9178797392736957],[30.063695055091262,-1.9177019466071685],[30.06368580101387,-1.9177058939698695],[30.06361095759308,-1.9177378174945638],[30.063450165895325,-1.9177832630253022],[30.063451929047847,-1.9177941344388911],[30.063455145939482,-1.9178107101592996],[30.06348085500131,-1.917943171211387],[30.063512496029475,-1.917931773970763],[30.06353003746385,-1.9180104902423163],[30.063531878386655,-1.9180095622086721],[30.063741026176274,-1.9179260465925438]]],"crs":null},"type":"Feature","properties":{"size":699.00391602,"district":"Gasabo","cell":"Musezero","village":"Amajyambere","sector":"Gisozi","upi":"1/02/04/01/7035"}},{"geometry":{"type":"Polygon","coordinates":[[[30.057051272038727,-1.9178130858942875],[30.05701702758411,-1.9177926817614297],[30.056974745141947,-1.9177728305155242],[30.056892998795128,-1.9177473078824054],[30.056876085864037,-1.9177189458220458],[30.056845871060755,-1.9176942191876576],[30.056809402073664,-1.9176814577213706],[30.056753906711503,-1.9176639105432687],[30.05670633905383,-1.9176543403419772],[30.05667304098464,-1.917628816082908],[30.056608031730427,-1.9175873383924267],[30.056574733454415,-1.9175554323369035],[30.056523993993817,-1.9175315041030863],[30.05649179832033,-1.9175161548583908],[30.056409285073453,-1.9180624305081682],[30.056459231341666,-1.918074992556781],[30.05648866340584,-1.9180785813390782],[30.056504717214565,-1.918086656633844],[30.056510069412543,-1.9180902462154017],[30.056505611004876,-1.918122552388266],[30.05650561168197,-1.9181431919213545],[30.056510964453434,-1.9181916503284786],[30.056509182129165,-1.9182526726778542],[30.05654574997002,-1.918264337954304],[30.05657785834324,-1.9182760024739092],[30.056618885800617,-1.9182921545734153],[30.056659912300688,-1.9183065113401185],[30.056694696686325,-1.9183172785546143],[30.05670361494312,-1.9182966387242837],[30.056721451236747,-1.9182759976921742],[30.056746423907715,-1.918254460112538],[30.05678923301822,-1.9182167684727873],[30.056826691418987,-1.9181934351433523],[30.056839176913602,-1.9181844607802414],[30.056851663662442,-1.918186254790442],[30.056889121883877,-1.918157537273009],[30.05691231120317,-1.918165613229699],[30.05692925700441,-1.9181548442893452],[30.056963147410524,-1.9181243315578205],[30.05698633563107,-1.9180992042753073],[30.056996145893866,-1.918087537455156],[30.05700238852159,-1.918079461418227],[30.057012698476235,-1.918064800854126],[30.057016264408055,-1.9180097604725304],[30.057018640546076,-1.9179654894085914],[30.057034097892004,-1.9179044666006815],[30.057038853589134,-1.9178649818025844],[30.05703885287603,-1.9178434450558337],[30.057051272038727,-1.9178130858942875]]],"crs":null},"type":"Feature","properties":{"size":3916.54561709,"district":"Gasabo","cell":"Ruhango","village":"Ntora","sector":"Gisozi","upi":"1/02/04/02/1083"}},{"geometry":{"type":"Polygon","coordinates":[[[30.055434370839315,-1.9135990909475058],[30.055383825349736,-1.9136210788495898],[30.055291070416438,-1.9136533869821972],[30.05515669532787,-1.9137120204556781],[30.05507699851146,-1.913511596145433],[30.055031826931483,-1.9135421200568619],[30.054967612573257,-1.9135875897025403],[30.054825166195222,-1.9136451027974675],[30.05473716858385,-1.9136881800261234],[30.05467295383328,-1.9137216837957094],[30.05462751005642,-1.9137295991842207],[30.05454928078013,-1.9137432254096374],[30.054487443613972,-1.9137480137328402],[30.054512915638526,-1.9142830137205795],[30.054617347312686,-1.9142772644110362],[30.054639623088434,-1.9143643368474188],[30.054668166242408,-1.9144584619786358],[30.054826723116115,-1.9144664332249648],[30.054912343129665,-1.9144504768864492],[30.054959909826117,-1.914432926322316],[30.055056631324238,-1.9144744021534197],[30.055099658829718,-1.9144934792180168],[30.055150180597742,-1.9145158789860037],[30.055237386735012,-1.9145142807134736],[30.05527930272296,-1.9145184968019648],[30.055332521555634,-1.9145238494154262],[30.055430027704446,-1.914534065620642],[30.05548473693149,-1.914539798049544],[30.05564089372264,-1.91454714341902],[30.05563866232408,-1.9145371891222027],[30.055579320531454,-1.9141525441208738],[30.055510903797785,-1.9138347572120347],[30.055470703696205,-1.9136864631929342],[30.055434370839315,-1.9135990909475058]]],"crs":null},"type":"Feature","properties":{"size":10600.12237735,"district":"Gasabo","cell":"Ruhango","village":"Ntora","sector":"Gisozi","upi":"1/02/04/02/140"}},{"geometry":{"type":"Polygon","coordinates":[[[30.054650091203364,-1.924935185602762],[30.05463801255735,-1.9249348287346542],[30.054608962364625,-1.924929671596506],[30.054578201819105,-1.9249047414431817],[30.05439620617478,-1.9248222172013547],[30.054328524129275,-1.9248056091607477],[30.05432769338266,-1.924829104970498],[30.054326627486493,-1.9249777114459417],[30.054318068449557,-1.9250746297903165],[30.054497873586996,-1.9250757003139043],[30.054555668157153,-1.9250800063466627],[30.054602759661947,-1.9250918504024475],[30.054613462342633,-1.925100464936876],[30.054638075596632,-1.9249949311949974],[30.054650091203364,-1.924935185602762]]],"crs":null},"type":"Feature","properties":{"size":819.3664559,"district":"Gasabo","cell":"Ruhango","village":"Umurava","sector":"Gisozi","upi":"1/02/04/02/423"}},{"geometry":{"type":"Polygon","coordinates":[[[30.08089033062404,-1.9433621869701716],[30.08085313135323,-1.9433379305465066],[30.080834104643365,-1.9433522895836044],[30.080760670462805,-1.9432810506069917],[30.080747290955408,-1.9432996467131605],[30.080710427303732,-1.9433199895337914],[30.080667778595757,-1.9433104397016372],[30.08062718154809,-1.9432888841194254],[30.08062053626792,-1.9432977154744293],[30.080550781046483,-1.9433904202791203],[30.080557689448533,-1.943395034444436],[30.080768184861626,-1.9435721081283084],[30.080849842181564,-1.943431770862207],[30.08089033062404,-1.9433621869701716]]],"crs":null},"type":"Feature","properties":{"size":637.81408775,"district":"Gasabo","cell":"Kamatamu","village":"Amajyambere","sector":"Kacyiru","upi":"1/02/07/01/1219"}},{"geometry":{"type":"Polygon","coordinates":[[[30.094650808575835,-1.9448415475190675],[30.094354170343106,-1.9447497310745319],[30.094137045474064,-1.9451522254473048],[30.09442250891184,-1.945317667354721],[30.094650808575835,-1.9448415475190675]]],"crs":null},"type":"Feature","properties":{"size":1925.00818349,"district":"Gasabo","cell":"Kamatamu","village":"Nyagacyamo","sector":"Kacyiru","upi":"1/02/07/01/940"}},{"geometry":{"type":"Polygon","coordinates":[[[30.129123966497996,-1.9547465578607863],[30.128922394511648,-1.954329938997142],[30.128718479630695,-1.9544274278932823],[30.12890504623937,-1.9548017695648172],[30.129123966497996,-1.9547465578607863]]],"crs":null},"type":"Feature","properties":{"size":1210.64421939,"district":"Gasabo","cell":"Bibare","village":"Inyange","sector":"Kimironko","upi":"1/02/09/01/2602"}},{"geometry":{"type":"Polygon","coordinates":[[[30.128498202731766,-1.9401673730237277],[30.128150017119292,-1.9399168260973043],[30.128068482137056,-1.9400744575636484],[30.12834639696064,-1.9403257524203799],[30.128498202731766,-1.9401673730237277]]],"crs":null},"type":"Feature","properties":{"size":968.47037874,"district":"Gasabo","cell":"Kibagabaga","village":"Kamahinda","sector":"Kimironko","upi":"1/02/09/02/2192"}},{"geometry":{"type":"Polygon","coordinates":[[[30.13417747767286,-1.9315549066786306],[30.134177813788078,-1.9315539235179082],[30.133896702386952,-1.9314994112764627],[30.13389019832442,-1.9315166433185278],[30.13385786252948,-1.9316977894554006],[30.134115202030305,-1.9317719744087773],[30.13417747767286,-1.9315549066786306]]],"crs":null},"type":"Feature","properties":{"size":733.38488002,"district":"Gasabo","cell":"Kibagabaga","village":"Ibuhoro","sector":"Kimironko","upi":"1/02/09/02/2699"}},{"geometry":{"type":"Polygon","coordinates":[[[30.11532924962972,-1.92648893343915],[30.115182863377488,-1.92639545062791],[30.11506903693441,-1.9266435990515993],[30.11512834487035,-1.9266804793080476],[30.115235471324546,-1.926747093649404],[30.11532924962972,-1.92648893343915]]],"crs":null},"type":"Feature","properties":{"size":612.77258727,"district":"Gasabo","cell":"Kibagabaga","village":"Urumuri","sector":"Kimironko","upi":"1/02/09/02/3440"}},{"geometry":{"type":"Polygon","coordinates":[[[30.086087651160344,-1.902392494825152],[30.08604216581184,-1.90238644001309],[30.085987983509337,-1.9023776930915082],[30.085938484589768,-1.9023716384778109],[30.085899018584225,-1.9023723133645687],[30.085862228825558,-1.9023776993907748],[30.085853533169594,-1.9023830840103104],[30.085852865255923,-1.9024005833208735],[30.085854205409404,-1.9024349079937857],[30.08585286918232,-1.9024800020736132],[30.085848189460176,-1.9025331721449008],[30.08578932646649,-1.902539905094311],[30.085747185175283,-1.9025372155616254],[30.085608723041396,-1.9025789501324808],[30.085661441764845,-1.9026751365448775],[30.08571406695641,-1.9027702566147164],[30.085780964884695,-1.9029210140467359],[30.085797623761465,-1.9029498578973147],[30.085867412754364,-1.9029047169779671],[30.085980679749476,-1.9028813792348],[30.086140325340804,-1.9028768842522472],[30.086173324952277,-1.9028813695652396],[30.086200080606176,-1.902881368220603],[30.08630175425206,-1.9028705947385443],[30.086400750988492,-1.9028418735019486],[30.086498855837267,-1.9028095625471457],[30.086537146853995,-1.9028060730604681],[30.086531531742786,-1.902757880689988],[30.086530835496134,-1.9027478313937682],[30.08652963349373,-1.9027262250752464],[30.086528555248396,-1.9026987850551955],[30.08652791607558,-1.902679593586721],[30.08652600377894,-1.9026546516966536],[30.08652059637319,-1.9026256915164221],[30.086515230984773,-1.902592095129122],[30.086511301585272,-1.902585598671051],[30.08650871850746,-1.9025745862317947],[30.086498905092142,-1.9025171542230226],[30.08649801119678,-1.9024731826770322],[30.0865006843005,-1.902432800708732],[30.086498144119105,-1.9024167495825626],[30.086496954467904,-1.9024084875020137],[30.086489046845298,-1.902371739238356],[30.08646023102346,-1.9023736309892156],[30.086387321154675,-1.9023837301209743],[30.08632912691433,-1.9023897901449094],[30.086240831636232,-1.9024019096791456],[30.08617996111317,-1.9024025856483606],[30.08614584703535,-1.902401241542021],[30.08612176557178,-1.9024005698413011],[30.086087651160344,-1.902392494825152]]],"crs":null},"type":"Feature","properties":{"size":4668.89581274,"district":"Gasabo","cell":"Kagugu","village":"Muhororo","sector":"Kinyinya","upi":"1/02/10/03/988"}},{"geometry":{"type":"Polygon","coordinates":[[[30.053279931634002,-1.9229090095548025],[30.053432311678886,-1.9228491202711748],[30.05335879329186,-1.9226935247436943],[30.053358622501474,-1.9226935916782895],[30.053193305548803,-1.9227585661746198],[30.05320797845727,-1.9227889479757614],[30.053230498152875,-1.9228265298516567],[30.053266373609148,-1.922886388798772],[30.053279931634002,-1.9229090095548025]]],"crs":null},"type":"Feature","properties":{"size":363.26645977,"district":"Gasabo","cell":"Ruhango","village":"Umurava","sector":"Gisozi","upi":"1/02/04/02/5577"}},{"geometry":{"type":"Polygon","coordinates":[[[30.085590800859556,-1.8919908981500204],[30.085567985879774,-1.8919861970516978],[30.085491729083873,-1.8919619715486093],[30.085442063071884,-1.891951878549787],[30.085385874140652,-1.8919301763648688],[30.085339217542572,-1.8919185682619173],[30.0852604526744,-1.891890809190134],[30.085200752753472,-1.8918706212201766],[30.085170656471284,-1.8919705688455384],[30.085154104158143,-1.892023066597272],[30.085104445464555,-1.8921815701212534],[30.085086889873565,-1.8922502204769416],[30.085068332583585,-1.8923304812938866],[30.085037733746724,-1.89241074270459],[30.08500964511358,-1.8925197763231278],[30.085089414326042,-1.8925712599576727],[30.08516015205071,-1.892597505384616],[30.085246942853665,-1.8926192060631346],[30.085254970075404,-1.8926217299834218],[30.08525246266199,-1.8926318255672336],[30.08526550557352,-1.8926318249222935],[30.085293600037478,-1.8926424236750847],[30.085359450822896,-1.8926753505001555],[30.085590800859556,-1.8919908981500204]]],"crs":null},"type":"Feature","properties":{"size":3410.5874136,"district":"Gasabo","cell":"Kagugu","village":"Kagarama","sector":"Kinyinya","upi":"1/02/10/03/1464"}},{"geometry":{"type":"Polygon","coordinates":[[[30.085762909861376,-1.891481711942434],[30.08589856328136,-1.891080379461234],[30.08589993765787,-1.8910798312967185],[30.085877234240403,-1.8910586448041884],[30.085907552714183,-1.8909814521896706],[30.085817619365375,-1.890902796733567],[30.085640427739552,-1.8907628140119748],[30.085585993618658,-1.8907256149149958],[30.085549789805853,-1.8907968058925475],[30.085488255654564,-1.890894399895855],[30.0854253833449,-1.890998051058512],[30.085378564947774,-1.89109631723975],[30.085351145895412,-1.8912026582857804],[30.085342271303258,-1.8912426000980724],[30.085690589422555,-1.891441103966501],[30.085755175619862,-1.8914779109277151],[30.085762909861376,-1.891481711942434]]],"crs":null},"type":"Feature","properties":{"size":3096.30595459,"district":"Gasabo","cell":"Kagugu","village":"Kagarama","sector":"Kinyinya","upi":"1/02/10/03/1471"}},{"geometry":{"type":"Polygon","coordinates":[[[30.082968708838514,-1.8998387668024264],[30.083048541989495,-1.8996984349705826],[30.08306264536544,-1.8996736433419028],[30.08309950594203,-1.8995898850605715],[30.08316001373186,-1.899487135823161],[30.083037697628168,-1.8993952515311223],[30.083005588678812,-1.8993674340406281],[30.082982244593325,-1.899343594345031],[30.082832133648523,-1.8995791323172178],[30.082703778577205,-1.8997287343654479],[30.082812716932576,-1.8998122007144918],[30.0828654957656,-1.8998544287013719],[30.082926057568102,-1.8999036567459369],[30.082968708838514,-1.8998387668024264]]],"crs":null},"type":"Feature","properties":{"size":1445.45443023,"district":"Gasabo","cell":"Kagugu","village":"Nyakabungo","sector":"Kinyinya","upi":"1/02/10/03/11070"}},{"geometry":{"type":"Polygon","coordinates":[[[30.072632580647298,-1.8981928787253621],[30.072631478299442,-1.898207149171888],[30.072634155394077,-1.898233173680887],[30.072651993129202,-1.8982565050037739],[30.072679642447078,-1.8982834256707453],[30.072637724716387,-1.898293298601328],[30.072651105584196,-1.8983561147480488],[30.072655566310846,-1.8983875233677712],[30.07269302871425,-1.8984754649997884],[30.07272156681459,-1.8984323893983932],[30.072734052570162,-1.8984135437660943],[30.07276705158476,-1.8984063628514856],[30.072822347300708,-1.8983902079511195],[30.072907074279073,-1.8983659750694748],[30.073001230183568,-1.898330443403643],[30.072914400710676,-1.8982692484367993],[30.072720560970204,-1.8981316573600673],[30.07271002926971,-1.898125564531077],[30.072666463502067,-1.8981696926419833],[30.072668343307242,-1.8981748922411728],[30.072632580647298,-1.8981928787253621]]],"crs":null},"type":"Feature","properties":{"size":762.10071514,"district":"Gasabo","cell":"Kagugu","village":"Giheka","sector":"Kinyinya","upi":"1/02/10/03/11360"}},{"geometry":{"type":"Polygon","coordinates":[[[30.07659069687657,-1.9144754717270904],[30.076578355158837,-1.9144600984579099],[30.076521272488726,-1.914407155482781],[30.07646864987472,-1.9143676732197132],[30.076423162250705,-1.9143371636732978],[30.076401604407774,-1.9143493475673936],[30.076358056359474,-1.9143739595754055],[30.076292058912706,-1.9144143452730713],[30.076202872548492,-1.914456526431958],[30.0761534436379,-1.9144758133022517],[30.07617172585379,-1.9145037011697315],[30.07619514059902,-1.9145676383350863],[30.076205845736798,-1.914610713143709],[30.076219894162183,-1.91465984399308],[30.076275123852614,-1.9146440760721888],[30.07633041862866,-1.9146162545549978],[30.07642674128274,-1.9145920209548661],[30.076531982187017,-1.9145731711337894],[30.07658192788198,-1.9145722716770728],[30.07667459908862,-1.9145862946098053],[30.076653277452262,-1.914553423370958],[30.07659069687657,-1.9144754717270904]]],"crs":null},"type":"Feature","properties":{"size":1070.66301117,"district":"Gasabo","cell":"Kagugu","village":"Kadobogo","sector":"Kinyinya","upi":"1/02/10/03/4606"}},{"geometry":{"type":"Polygon","coordinates":[[[30.082663221254084,-1.9105884619694786],[30.082641392675114,-1.9105763994866076],[30.082615875715295,-1.910560315097663],[30.082601732869627,-1.9105510361361253],[30.082566302880068,-1.910535888330372],[30.08256630327398,-1.910544136904174],[30.082562478524757,-1.9105644844756375],[30.08255428072922,-1.9105870318781155],[30.082540072247838,-1.9106150786202813],[30.082529687564396,-1.9106216779811405],[30.082510559773414,-1.9106387259579287],[30.082490338833388,-1.9106728228487506],[30.082467205961635,-1.9107175534855134],[30.082462467394496,-1.910726715781494],[30.082437874199623,-1.9107608119784971],[30.08241492207435,-1.9108070069086287],[30.08239743405071,-1.910846601811346],[30.082381039168244,-1.9108878472803572],[30.082378307191284,-1.9109021449401031],[30.08237017049724,-1.910924274483508],[30.082391972246203,-1.9109202920477748],[30.082402903115117,-1.910925240664623],[30.08241055500391,-1.9109345886790436],[30.082441710541204,-1.9109835305221463],[30.08248106702722,-1.9110759153615606],[30.082513315947566,-1.9111314560092307],[30.082547751049503,-1.9111880963603223],[30.0826045967466,-1.911284329684972],[30.082643950246318,-1.911332721222028],[30.082691777205454,-1.9114086075934629],[30.082751741120358,-1.9114091817264314],[30.0828282811296,-1.911398514562606],[30.08289186746342,-1.9113771854766368],[30.08295780834736,-1.9113440070893848],[30.08300255358843,-1.9113013520105866],[30.083056717100487,-1.9112314454281751],[30.083086154168356,-1.9111911598434168],[30.08311912347205,-1.9111603527104508],[30.083157980391046,-1.911107034462324],[30.08320154710511,-1.9110631946080527],[30.0832366690812,-1.9110284313087376],[30.083273373944756,-1.910992102330517],[30.083319296900186,-1.910953000766092],[30.083362918511227,-1.910929296650289],[30.083379042066998,-1.9109101061715905],[30.08339308844179,-1.9108946258434762],[30.083415160895537,-1.910856261662525],[30.083439239402185,-1.9108118393848132],[30.083445927797236,-1.9108051090540554],[30.083461980603488,-1.9107728022607413],[30.083470675788462,-1.9107566492835548],[30.08348120762954,-1.9107446838147897],[30.0834914104908,-1.9107330918994236],[30.083512814125825,-1.9106940539356472],[30.08347059578177,-1.9107006937496889],[30.08342451791386,-1.9106960778851936],[30.083388395453312,-1.9106745420084519],[30.08336343965284,-1.910645068142635],[30.08335653280557,-1.9106327444594842],[30.08334967742904,-1.910625260479692],[30.083341443578103,-1.910626885271687],[30.083320097530006,-1.9106298691854584],[30.083281555801225,-1.910638820586771],[30.08321001925632,-1.910652533709458],[30.083163300095357,-1.9106587341730878],[30.08313896072791,-1.910662142416936],[30.083122663711396,-1.9106632086508972],[30.08310425064184,-1.910663422092464],[30.083086684305925,-1.9106629969516764],[30.083068520215072,-1.9106628612634633],[30.083061570251612,-1.910669854800133],[30.083050303947328,-1.9106805947739796],[30.083037901196768,-1.9106864245499915],[30.08302594205947,-1.9106830180724834],[30.082995252754568,-1.9106655573697193],[30.08298820338283,-1.91066153020138],[30.08296788179271,-1.9106585238962237],[30.082939420160763,-1.9106638949915575],[30.082911323693523,-1.9106736716391548],[30.0829067125929,-1.9106790840850962],[30.082899642344955,-1.910689601359799],[30.082885193401676,-1.9106892927395733],[30.082875354830687,-1.9106871279663757],[30.082855372018155,-1.9106818704701756],[30.08284061457415,-1.9106778500063055],[30.082825857984705,-1.9106729015777968],[30.082816634217465,-1.9106698088098721],[30.08281171501846,-1.9106611471414807],[30.082785096150147,-1.9106481198458964],[30.082777589255347,-1.9106444454338691],[30.082754187544342,-1.910631242518742],[30.082744693100068,-1.910625886832496],[30.082708108064605,-1.9106116598147396],[30.082663221254084,-1.9105884619694786]]],"crs":null},"type":"Feature","properties":{"size":6888.28950009,"district":"Gasabo","cell":"Kagugu","village":"Rukingu","sector":"Kinyinya","upi":"1/02/10/03/5838"}},{"geometry":{"type":"Polygon","coordinates":[[[30.08566900874244,-1.9094781924671245],[30.0856564006566,-1.90945770190651],[30.085624394177398,-1.909398179924329],[30.08559587117532,-1.9093434667213172],[30.085551657492164,-1.9093718378769688],[30.085482804365654,-1.9094245336065523],[30.085416859834215,-1.909472350591112],[30.085338308612418,-1.909527974500742],[30.085307272729146,-1.909482114163309],[30.085168594915224,-1.9095728698584447],[30.085142320301678,-1.9095410725554878],[30.08506870571043,-1.9095943419268984],[30.085006640813077,-1.9096421587032717],[30.085017310013413,-1.9096636252656],[30.084978519133017,-1.9096870460888757],[30.084914513828725,-1.9097231539638913],[30.08484469046783,-1.9097699952198575],[30.084782624132824,-1.9098070779897285],[30.08479329347512,-1.909831472254435],[30.084832088141862,-1.9098851394185703],[30.08486215401156,-1.9099290480121343],[30.08487476279932,-1.9099456358819817],[30.084844700279422,-1.9099700321691901],[30.084783605190065,-1.910034437386066],[30.084736087410928,-1.9100871329329074],[30.08470093366371,-1.9101329115451993],[30.084748087775484,-1.910198142579218],[30.08480628043643,-1.9102827083709033],[30.08485682872772,-1.9103646977652864],[30.084965941406796,-1.9103027710611147],[30.08506776836869,-1.910238363809969],[30.085121105491282,-1.9102012814645113],[30.08517056424125,-1.9101720047041564],[30.0852520250449,-1.9101124779592729],[30.08529954304893,-1.9100646609957812],[30.08534318226368,-1.9100344095253994],[30.08535772897329,-1.9100305061019978],[30.08537518730116,-1.910064657217384],[30.08540719354437,-1.9101193006066735],[30.085419801374805,-1.9101163722754997],[30.085437257600912,-1.9101261295009762],[30.08546926317215,-1.9101671111894762],[30.08548381174598,-1.9101827230571518],[30.085499329961625,-1.9102110197707507],[30.08551387821624,-1.9102383415369897],[30.085561400319374,-1.910273467949559],[30.08559437556833,-1.9103095700855433],[30.085630668730957,-1.9103471065102688],[30.085656648921226,-1.9103142764290841],[30.08567232387035,-1.910294611116853],[30.08573693270265,-1.910229548158852],[30.08580966506977,-1.9101680700256092],[30.085850394419122,-1.9101173265920772],[30.08588336564916,-1.9100724389492045],[30.085922155943077,-1.9100373082069717],[30.08594845357609,-1.910007317170483],[30.08595124809839,-1.9100041297523427],[30.085917349998173,-1.909974473676263],[30.085906635541438,-1.9099651005075606],[30.085860083160032,-1.909926071359035],[30.0858300168995,-1.9098928958781993],[30.085798011131722,-1.9098480105953617],[30.085776674431298,-1.9098216659770193],[30.085703934196786,-1.9097240904527855],[30.08579606267032,-1.9096557800458624],[30.085784424031335,-1.9096440716357224],[30.08575726688773,-1.9095982102080586],[30.08573205085748,-1.909560155884696],[30.08571362334038,-1.9095406415168448],[30.08566900874244,-1.9094781924671245]]],"crs":null},"type":"Feature","properties":{"size":8458.84840106,"district":"Gasabo","cell":"Kagugu","village":"Gicikiza","sector":"Kinyinya","upi":"1/02/10/03/9684"}},{"geometry":{"type":"Polygon","coordinates":[[[30.121257486206208,-1.9208648285386947],[30.121184513142737,-1.9208525196904014],[30.12110897507552,-1.9208596485070029],[30.12101564929061,-1.9208513351431011],[30.120911000366043,-1.9208226263799666],[30.12077656302268,-1.9208122004249557],[30.120770952485074,-1.920843874582293],[30.120749282186615,-1.9209662198587283],[30.120699364332914,-1.9209553193846527],[30.1205685240236,-1.920926747223861],[30.12055041656889,-1.9209279677044064],[30.120512590829357,-1.9209305164084791],[30.120468993860058,-1.9209165186500914],[30.120277109312003,-1.9208549095101448],[30.120264354807734,-1.9208814342468101],[30.12020734442722,-1.9209966802966925],[30.120348240645708,-1.9210874515465852],[30.120460587916185,-1.9211434569342465],[30.12052242664736,-1.9211613995035506],[30.12062470041823,-1.9212248075944225],[30.120676965031805,-1.9212572102430518],[30.12076502737686,-1.9212858198047622],[30.12085778889172,-1.9213611934952728],[30.120904168179788,-1.9213779414700445],[30.121217058049194,-1.9214909280964243],[30.12125259390933,-1.9213300559732838],[30.121259541126697,-1.9212986060225838],[30.121254967434087,-1.9212594618534966],[30.121244347653676,-1.9211685719507978],[30.121248956019116,-1.9210620340160027],[30.121257486206208,-1.9208648285386947]]],"crs":null},"type":"Feature","properties":{"size":4975.13812944,"district":"Gasabo","cell":"Murama","village":"Binunga","sector":"Kinyinya","upi":"1/02/10/04/1019"}},{"geometry":{"type":"Polygon","coordinates":[[[30.091231873286805,-1.8888139583803194],[30.091259530752577,-1.8888225021528384],[30.091288089818917,-1.8888313235430882],[30.091306084071363,-1.8888368813351117],[30.0913235632223,-1.8887900607093298],[30.09134401638026,-1.8887352735402672],[30.091369057723675,-1.8886681973811368],[30.091460721574183,-1.8884378429628135],[30.09147655246212,-1.8883968922962477],[30.091483426234443,-1.8883791095625257],[30.091508487461137,-1.8883142827649717],[30.0915204311788,-1.8882833870624125],[30.091524145783612,-1.8882737770960454],[30.09152443249042,-1.8882730363372395],[30.09151945618408,-1.8882719313642369],[30.091512455556582,-1.8882703760828574],[30.09149626098749,-1.8882667790425554],[30.09144480080277,-1.8882553459143971],[30.09142850016372,-1.888251724458987],[30.091389262312845,-1.888243007646991],[30.091341684012946,-1.888223585313184],[30.091316888699104,-1.8882165889023232],[30.09131680330343,-1.8882165644867062],[30.091242511410748,-1.8883959748963557],[30.091227331088977,-1.8884326348209979],[30.091208794899146,-1.8884804910957382],[30.091182789946355,-1.8885476342329481],[30.091171342338026,-1.8885771913228764],[30.0911459292777,-1.888635263710253],[30.091087190274738,-1.8887694942616855],[30.09115174412288,-1.8887892069387624],[30.091201306969282,-1.8888045166430947],[30.091231873286805,-1.8888139583803194]]],"crs":null},"type":"Feature","properties":{"size":1612.48888048,"district":"Gasabo","cell":"Gasanze","village":"Nyakabungo","sector":"Nduba","upi":"1/02/12/02/546"}},{"geometry":{"type":"Polygon","coordinates":[[[30.12656514803066,-1.9703294314236632],[30.126570624240916,-1.9703403268778183],[30.126783387644373,-1.970315961083847],[30.126808360660664,-1.9703135660054254],[30.126813109839148,-1.9702082726397936],[30.12681667018464,-1.9701089622816526],[30.12681620757108,-1.9700658563747238],[30.127008129540034,-1.9700574972431237],[30.127027156125575,-1.9700551035220226],[30.127040233285737,-1.970001258982882],[30.127047358663642,-1.9698648560773615],[30.12705092271206,-1.9698146029221353],[30.127063993615433,-1.9696781995604467],[30.12690107082194,-1.9696698368682029],[30.126832096875656,-1.9696710378285773],[30.126828536711475,-1.969772742258164],[30.12666799735837,-1.9698289903395387],[30.126629925394866,-1.9698348594930313],[30.126535996332077,-1.9698493405348836],[30.12643848133429,-1.9698625103969614],[30.126355815614648,-1.969897488051057],[30.126361186166193,-1.969902000831841],[30.126389936124852,-1.969918697443301],[30.126452593274088,-1.9699410325021396],[30.126470128430768,-1.9700207129423182],[30.12656514803066,-1.9703294314236632]]],"crs":null},"type":"Feature","properties":{"size":3111.52770757,"district":"Kicukiro","cell":"Kabeza","village":"Karisimbi","sector":"Kanombe","upi":"1/03/05/02/1958"}},{"geometry":{"type":"Polygon","coordinates":[[[30.20725091940825,-2.0057781931598946],[30.207185775895958,-2.0057244486084493],[30.207046618944997,-2.0055880645796864],[30.206953848110075,-2.0055055170268363],[30.206919354178538,-2.005458858492006],[30.206875343997254,-2.0053906627631752],[30.20672428383482,-2.0051729183400977],[30.20656361433015,-2.004943609101965],[30.20645977890652,-2.0050585552627402],[30.206318280768528,-2.005227280750981],[30.206142299174864,-2.005425923238834],[30.20597464298,-2.005626956909337],[30.20586525136978,-2.00577294422487],[30.20574515673468,-2.0059177363102556],[30.20566052313499,-2.0060218294004897],[30.20563481372483,-2.006054317527595],[30.205665003395776,-2.0060571084398884],[30.20571733346155,-2.006090604198866],[30.205769664575907,-2.0061324750973024],[30.20584102908165,-2.0062102391165086],[30.20592428650663,-2.0063011630796783],[30.205986209082784,-2.0063692878290627],[30.20600040810255,-2.0063849084733643],[30.20601446531999,-2.0064023751035625],[30.206020627659004,-2.006410032241199],[30.206035056176006,-2.0064205870713314],[30.20611220725452,-2.0064770253876993],[30.20616572934562,-2.00652487900987],[30.20624422777905,-2.0066014446205247],[30.20633105166669,-2.006680403230727],[30.206497561222672,-2.006811997530609],[30.20655538820199,-2.0068583329355487],[30.206551046789322,-2.006869490694425],[30.2066371840448,-2.006935201997366],[30.20664210218718,-2.0069280680314336],[30.206667373277185,-2.0068914113678904],[30.206703870168607,-2.006838470592128],[30.20673240707499,-2.0068013748578584],[30.206741920329492,-2.0067989813970795],[30.20687390604047,-2.0066458116841126],[30.206975141222934,-2.0065122352041067],[30.206980919592862,-2.0065046100154853],[30.207140256153146,-2.006340668507884],[30.207315047190484,-2.0061324543497427],[30.207278178382552,-2.006108529298999],[30.207179310109176,-2.0060415253910917],[30.20711627325528,-2.0059841012960233],[30.207104379889163,-2.005974530186887],[30.207099621310576,-2.005963762495919],[30.20725091940825,-2.0057781931598946]]],"crs":null},"type":"Feature","properties":{"size":20930.36037275,"district":"Kicukiro","cell":"Cyimo","village":"Cyimo","sector":"Masaka","upi":"1/03/08/02/673"}},{"geometry":{"type":"Polygon","coordinates":[[[30.09441408139211,-1.9976930188949147],[30.09429635474062,-1.997619348483952],[30.094264237918328,-1.997695420716545],[30.09431657315151,-1.9978593397888955],[30.094377785425305,-1.9979590398492064],[30.094503504371165,-1.9978549785917572],[30.09441408139211,-1.9976930188949147]]],"crs":null},"type":"Feature","properties":{"size":526.28374569,"district":"Kicukiro","cell":"Nyanza","village":"Juru","sector":"Gatenga","upi":"1/03/02/03/2183"}},{"geometry":{"type":"Polygon","coordinates":[[[30.082427023237585,-1.9746976123570676],[30.082453188725626,-1.974592287154567],[30.08247252896257,-1.9744577992644552],[30.082281935555105,-1.974466901181498],[30.08226769070727,-1.9746246394663132],[30.082350265215535,-1.974646761774643],[30.082427023237585,-1.9746976123570676]]],"crs":null},"type":"Feature","properties":{"size":433.2259043,"district":"Kicukiro","cell":"Kanserege","village":"Marembo II","sector":"Gikondo","upi":"1/03/03/02/319"}},{"geometry":{"type":"Polygon","coordinates":[[[30.209962469958054,-2.0229083936051033],[30.20977745805017,-2.0229250214286587],[30.209688822164267,-2.022933853075154],[30.209585577582722,-2.022951505833868],[30.209479408337508,-2.0229593593311646],[30.209316748284433,-2.0229848603995246],[30.209224216065316,-2.0229917316952135],[30.209083957370506,-2.023005470273203],[30.209039152375897,-2.0230113558606724],[30.209012837875164,-2.0228898419853403],[30.208992361720394,-2.022723248126386],[30.208985534511804,-2.0226487708786727],[30.20897870113909,-2.022533134259118],[30.2089679905854,-2.0224808290190572],[30.208929772543893,-2.022481981705507],[30.208808506765937,-2.0224937569645838],[30.20870623491986,-2.0225047953507542],[30.20858496960613,-2.0225202453435394],[30.208519750563,-2.022514556688942],[30.20852915265466,-2.0225561535021757],[30.208532821154474,-2.022583241988189],[30.208539062831363,-2.022634321385875],[30.208543074744675,-2.022661503889504],[30.208543077490905,-2.022683011534027],[30.208540709163444,-2.022735585279173],[30.208539526678006,-2.022775015511229],[30.20853715668878,-2.022821615413195],[30.208534789887175,-2.022886137749099],[30.208538360365967,-2.022941100263808],[30.208543117466714,-2.0229960635295092],[30.208546687047402,-2.0230510260441803],[30.208553821004767,-2.0231131576143033],[30.208558579480684,-2.023178874701872],[30.208563337635137,-2.0232350318313035],[30.20856809015963,-2.023254149324109],[30.208577595955255,-2.023291187732125],[30.20858591623222,-2.02335092961105],[30.20858592218565,-2.023397529205431],[30.20859543332615,-2.023476388132915],[30.208609967646,-2.0235959852175673],[30.208739147877846,-2.0235839068566928],[30.208900661634843,-2.023577911196409],[30.209009920418286,-2.0235683388915624],[30.20913461832815,-2.0235623479788414],[30.20924625199583,-2.023551579677181],[30.20930088108844,-2.0235479882827963],[30.20942438932676,-2.023525269837708],[30.209572836987178,-2.0235001586058385],[30.209669031976425,-2.0234893922817583],[30.20977353899462,-2.0234738457966945],[30.209838855438136,-2.023460693941505],[30.209958804015855,-2.0234606783313174],[30.210010420458214,-2.0234552051606607],[30.21000067098807,-2.023397009173049],[30.209981062525816,-2.023295747630117],[30.20997659861171,-2.023214199152925],[30.209962330066972,-2.0230788837492515],[30.209959651134618,-2.023029596503521],[30.209962469958054,-2.0229083936051033]]],"crs":null},"type":"Feature","properties":{"size":12544.177781,"district":"Kicukiro","cell":"Mbabe","village":"Murambi","sector":"Masaka","upi":"1/03/08/05/1544"}},{"geometry":{"type":"Polygon","coordinates":[[[30.08971215602815,-1.8886645922466412],[30.089713301259813,-1.8886655083939037],[30.08974696089013,-1.888627159819591],[30.08976943736303,-1.888604816954119],[30.089802156511162,-1.8885792663801961],[30.089800689404886,-1.8885769402137331],[30.08973567237642,-1.8885168556215044],[30.089653181921253,-1.8884406220927805],[30.089602711377637,-1.8883933111771536],[30.089556153300016,-1.8883557409723037],[30.08946146840091,-1.8884351212212866],[30.089444509827377,-1.8884500726404088],[30.08944658725947,-1.88845202252476],[30.08971215602815,-1.8886645922466412]]],"crs":null},"type":"Feature","properties":{"size":561.04927409,"district":"Gasabo","cell":"Gasanze","village":"Nyakabungo","sector":"Nduba","upi":"1/02/12/02/3823"}}]}